[{"OBJECT_NAME":"QIANFAN-36","OBJECT_ID":"2024-185T","EPOCH":"2026-03-09T23:41:54.800448","MEAN_MOTION":13.5561466,"ECCENTRICITY":0.00073465,"INCLINATION":88.972,"RA_OF_ASC_NODE":71.9374,"ARG_OF_PERICENTER":135.4535,"MEAN_ANOMALY":224.7211,"EPHEMERIS_TYPE":0,"CLASSIFICATION_TYPE":"U","NORAD_CAT_ID":61569,"ELEMENT_SET_NO":999,"REV_AT_EPOCH":7974,"BSTAR":0.00015714599,"MEAN_MOTION_DOT":1.21e-6,"MEAN_MOTION_DDOT":0},{"OBJECT_NAME":"THORAD AGENA D DEB","OBJECT_ID":"1970-025AB","EPOCH":"2026-03-09T20:22:42.524256","MEAN_MOTION":13.55207955,"ECCENTRICITY":0.00114094,"INCLINATION":99.4014,"RA_OF_ASC_NODE":282.0517,"ARG_OF_PERICENTER":109.5642,"MEAN_ANOMALY":274.6519,"EPHEMERIS_TYPE":0,"CLASSIFICATION_TYPE":"U","NORAD_CAT_ID":4643,"ELEMENT_SET_NO":999,"REV_AT_EPOCH":75835,"BSTAR":0.00030913339,"MEAN_MOTION_DOT":1.72e-6,"MEAN_MOTION_DDOT":0}]
